NORAD_CAT_ID,OBJECT_NAME,OBJECT_TYPE,EPOCH,MEAN_MOTION,ECCENTRICITY,INCLINATION,RA_OF_ASC_NODE,ARG_OF_PERICENTER,MEAN_ANOMALY,BSTAR,MEAN_MOTION_DOT,MEAN_MOTION_DDOT,TLE_LINE0,TLE_LINE1,TLE_LINE2,SEMIMAJOR_AXIS,PERIOD,APOGEE,PERIGEE,DECAYED
55652.0,STARLINK-5487,PAYLOAD,2023-08-04 18:27:28,14.98323984,0.0003223,69.9988,54.435,268.029,92.05,-6.5101e-05,-8.7e-06,0.0,0 STARLINK-5487,1 55652U 23021AA  23216.76908354 -.00000870  00000-0 -65101-4 0  9991,2 55652  69.9988  54.4350 0003223 268.0290  92.0500 14.98323984 26502,6950.211,96.107,574.317,569.836,0.0
55652.0,STARLINK-5487,PAYLOAD,2023-08-05 18:29:29,14.98329969,0.0003201,69.9992,51.9095,270.2758,89.8035,-0.00012689,-1.607e-05,0.0,0 STARLINK-5487,1 55652U 23021AA  23217.77048232 -.00001607  00000-0 -12689-3 0  9994,2 55652  69.9992  51.9095 0003201 270.2758  89.8035 14.98329969 26657,6950.193,96.107,574.283,569.833,0.0
55652.0,STARLINK-5487,PAYLOAD,2023-08-06 16:55:23,14.9831341,0.0002946,69.9996,49.5528,271.7552,88.3269,5.999e-05,6.23e-06,0.0,0 STARLINK-5487,1 55652U 23021AA  23218.70513107  .00000623  00000-0  59990-4 0  9998,2 55652  69.9996  49.5528 0002946 271.7552  88.3269 14.98313410 26790,6950.244,96.108,574.157,570.062,0.0
55652.0,STARLINK-5487,PAYLOAD,2023-08-07 18:33:32,14.98327386,0.0003039,69.9996,46.8597,269.1125,90.9686,2.1128e-05,1.59e-06,0.0,0 STARLINK-5487,1 55652U 23021AA  23219.77329045  .00000159  00000-0  21128-4 0  9998,2 55652  69.9996  46.8597 0003039 269.1125  90.9686 14.98327386 26954,6950.201,96.107,574.178,569.954,0.0
55652.0,STARLINK-5487,PAYLOAD,2023-08-08 18:35:32,14.98333587,0.0003141,69.9995,44.3342,269.9767,90.1032,0.00014781,1.671e-05,0.0,0 STARLINK-5487,1 55652U 23021AA  23220.77468288  .00001671  00000-0  14781-3 0  9999,2 55652  69.9995  44.3342 0003141 269.9767  90.1032 14.98333587 27103,6950.182,96.107,574.23,569.864,0.0
55652.0,STARLINK-5487,PAYLOAD,2023-08-09 05:48:29,14.9832872,0.0003038,69.9998,43.1561,269.8431,90.238,6.7189e-05,7.09e-06,0.0,0 STARLINK-5487,1 55652U 23021AA  23221.24200730  .00000709  00000-0  67189-4 0  9990,2 55652  69.9998  43.1561 0003038 269.8431  90.2380 14.98328720 27175,6950.197,96.107,574.173,569.95,0.0
55652.0,STARLINK-5487,PAYLOAD,2023-08-10 05:50:30,14.98322885,0.0002903,69.9998,40.6303,274.0107,86.072,8.8933e-05,9.68e-06,0.0,0 STARLINK-5487,1 55652U 23021AA  23222.24341075  .00000968  00000-0  88933-4 0  9996,2 55652  69.9998  40.6303 0002903 274.0107  86.0720 14.98322885 27323,6950.215,96.107,574.098,570.062,0.0
55652.0,STARLINK-5487,PAYLOAD,2023-08-10 18:39:34,14.98335891,0.0003122,69.9997,39.2838,268.0598,92.0203,-6.1295e-05,-8.24e-06,0.0,0 STARLINK-5487,1 55652U 23021AA  23222.77748388 -.00000824  00000-0 -61295-4 0  9997,2 55652  69.9997  39.2838 0003122 268.0598  92.0203 14.98335891 27403,6950.175,96.107,574.21,569.87,0.0
55652.0,STARLINK-5487,PAYLOAD,2023-08-11 18:41:35,14.98331704,0.0003115,69.9999,36.759,267.5108,92.5694,3.6881e-05,3.47e-06,0.0,0 STARLINK-5487,1 55652U 23021AA  23223.77888236  .00000347  00000-0  36881-4 0  9996,2 55652  69.9999  36.7590 0003115 267.5108  92.5694 14.98331704 27559,6950.188,96.107,574.218,569.888,0.0
55652.0,STARLINK-5487,PAYLOAD,2023-08-13 10:44:57,14.98327861,0.0002968,70.0004,32.5513,266.576,93.506,-3.1544e-05,-4.69e-06,0.0,0 STARLINK-5487,1 55652U 23021AA  23225.44788466 -.00000469  00000-0 -31544-4 0  9994,2 55652  70.0004  32.5513 0002968 266.5760  93.5060 14.98327861 27801,6950.2,96.107,574.127,570.002,0.0
55652.0,STARLINK-5487,PAYLOAD,2023-08-14 17:11:30,14.98331122,0.0003016,70.0005,29.3536,270.4949,89.5864,-1.5145e-05,-2.74e-06,0.0,0 STARLINK-5487,1 55652U 23021AA  23226.71632239 -.00000274  00000-0 -15145-4 0  9994,2 55652  70.0005  29.3536 0003016 270.4949  89.5864 14.98331122 27991,6950.189,96.107,574.151,569.958,0.0
55652.0,STARLINK-5487,PAYLOAD,2023-08-15 17:13:30,14.98332404,0.0003103,70.0004,26.8278,270.2625,89.8178,5.7131e-05,5.89e-06,0.0,0 STARLINK-5487,1 55652U 23021AA  23227.71771896  .00000589  00000-0  57131-4 0  9996,2 55652  70.0004  26.8278 0003103 270.2625  89.8178 14.98332404 28144,6950.185,96.107,574.207,569.894,0.0
55652.0,STARLINK-5487,PAYLOAD,2023-08-16 17:15:31,14.98333126,0.0003044,70.0004,24.3028,270.094,89.987,2.1672e-05,1.66e-06,0.0,0 STARLINK-5487,1 55652U 23021AA  23228.71911838  .00000166  00000-0  21672-4 0  9991,2 55652  70.0004  24.3028 0003044 270.0940  89.9870 14.98333126 28290,6950.183,96.107,574.164,569.933,0.0
55652.0,STARLINK-5487,PAYLOAD,2023-08-17 17:17:32,14.98332141,0.0003076,70.0007,21.7782,270.2046,89.876,-2.7926e-05,-4.26e-06,0.0,0 STARLINK-5487,1 55652U 23021AA  23229.72051943 -.00000426  00000-0 -27926-4 0  9994,2 55652  70.0007  21.7782 0003076 270.2046  89.8760 14.98332141 28445,6950.186,96.107,574.189,569.913,0.0
55652.0,STARLINK-5487,PAYLOAD,2023-08-19 09:20:54,14.98328235,0.0002982,70.0014,17.5706,267.863,92.2188,-7.9187e-06,-1.87e-06,0.0,0 STARLINK-5487,1 55652U 23021AA  23231.38952114 -.00000187  00000-0 -79187-5 0  9990,2 55652  70.0014  17.5706 0002982 267.8630  92.2188 14.98328235 28696,6950.198,96.107,574.136,569.991,0.0
55652.0,STARLINK-5487,PAYLOAD,2023-08-20 12:35:11,14.98329184,0.0003015,70.0014,14.7092,267.0305,93.0509,2.0955e-05,1.57e-06,0.0,0 STARLINK-5487,1 55652U 23021AA  23232.52444041  .00000157  00000-0  20955-4 0  9995,2 55652  70.0014  14.7092 0003015 267.0305  93.0509 14.98329184 28861,6950.195,96.107,574.156,569.965,0.0
55652.0,STARLINK-5487,PAYLOAD,2023-08-21 19:01:44,14.98330892,0.0003116,70.0011,11.5101,270.7234,89.3568,4.2507e-05,4.14e-06,0.0,0 STARLINK-5487,1 55652U 23021AA  23233.79287845  .00000414  00000-0  42507-4 0  9995,2 55652  70.0011  11.5101 0003116 270.7234  89.3568 14.98330892 29051,6950.19,96.107,574.221,569.889,0.0
55652.0,STARLINK-5487,PAYLOAD,2023-08-23 12:41:14,14.98328407,0.0002976,70.0017,7.1336,271.4349,88.6469,3.5818e-06,-5e-07,0.0,0 STARLINK-5487,1 55652U 23021AA  23235.52864029 -.00000050  00000-0  35818-5 0  9998,2 55652  70.0017   7.1336 0002976 271.4349  88.6469 14.98328407 29316,6950.198,96.107,574.131,569.994,0.0
55652.0,STARLINK-5487,PAYLOAD,2023-08-24 20:43:55,14.98335276,0.0002974,70.0016,3.7675,276.0315,84.0506,4.4961e-05,4.44e-06,0.0,0 STARLINK-5487,1 55652U 23021AA  23236.86383360  .00000444  00000-0  44961-4 0  9994,2 55652  70.0016   3.7675 0002974 276.0315  84.0506 14.98335276 29814,6950.177,96.107,574.109,569.975,0.0
55652.0,STARLINK-5487,PAYLOAD,2023-08-25 12:45:16,14.98326922,0.000314,70.0012,2.0845,273.2271,86.8528,-6.6692e-05,-8.89e-06,0.0,0 STARLINK-5487,1 55652U 23021AA  23237.53144163 -.00000889  00000-0 -66692-4 0  9995,2 55652  70.0012   2.0845 0003140 273.2271  86.8528 14.98326922 29910,6950.202,96.107,574.25,569.885,0.0
55652.0,STARLINK-5487,PAYLOAD,2023-08-25 17:33:40,14.98331593,0.0003206,70.0013,1.5795,272.4403,87.6389,-2.5555e-05,-3.98e-06,0.0,0 STARLINK-5487,1 55652U 23021AA  23237.73171712 -.00000398  00000-0 -25555-4 0  9995,2 55652  70.0013   1.5795 0003206 272.4403  87.6389 14.98331593 29644,6950.188,96.107,574.281,569.825,0.0
55652.0,STARLINK-5487,PAYLOAD,2023-08-26 11:11:09,14.98328037,0.0003052,70.0011,359.7277,265.6691,94.412,-4.5512e-05,-6.36e-06,0.0,0 STARLINK-5487,1 55652U 23021AA  23238.46607938 -.00000636  00000-0 -45512-4 0  9990,2 55652  70.0011 359.7277 0003052 265.6691  94.4120 14.98328037 30052,6950.199,96.107,574.185,569.943,0.0
55652.0,STARLINK-5487,PAYLOAD,2023-08-26 17:35:41,14.98334946,0.0003095,70.0013,359.0547,270.3058,89.7747,-2.9154e-06,-1.28e-06,0.0,0 STARLINK-5487,1 55652U 23021AA  23238.73311378 -.00000128  00000-0 -29154-5 0  9991,2 55652  70.0013 359.0547 0003095 270.3058  89.7747 14.98334946 29791,6950.178,96.107,574.194,569.892,0.0
55652.0,STARLINK-5487,PAYLOAD,2023-08-27 09:37:01,14.98330463,0.0002965,70.0012,357.371,265.2632,94.8189,1.9346e-05,1.38e-06,0.0,0 STARLINK-5487,1 55652U 23021AA  23239.40071539  .00000138  00000-0  19346-4 0  9998,2 55652  70.0012 357.3710 0002965 265.2632  94.8189 14.98330463 30192,6950.191,96.107,574.117,569.996,0.0
55652.0,STARLINK-5487,PAYLOAD,2023-08-27 17:37:42,14.98331736,0.0003012,70.0015,356.5301,267.029,93.0524,3.9121e-05,3.74e-06,0.0,0 STARLINK-5487,1 55652U 23021AA  23239.73451395  .00000374  00000-0  39121-4 0  9991,2 55652  70.0015 356.5301 0003012 267.0290  93.0524 14.98331736 29945,6950.188,96.107,574.146,569.959,0.0
55652.0,STARLINK-5487,PAYLOAD,2023-08-28 09:39:03,14.98328628,0.000312,70.0014,354.8469,269.6054,90.4748,-4.5075e-05,-6.31e-06,0.0,0 STARLINK-5487,1 55652U 23021AA  23240.40211867 -.00000631  00000-0 -45075-4 0  9998,2 55652  70.0014 354.8469 0003120 269.6054  90.4748 14.98328628 30044,6950.197,96.107,574.231,569.894,0.0
55652.0,STARLINK-5487,PAYLOAD,2023-08-28 16:03:35,14.98331628,0.0003097,70.0014,354.1739,270.4494,89.631,-6.8805e-06,-1.75e-06,0.0,0 STARLINK-5487,1 55652U 23021AA  23240.66915574 -.00000175  00000-0 -68805-5 0  9992,2 55652  70.0014 354.1739 0003097 270.4494  89.6310 14.98331628 30384,6950.188,96.107,574.205,569.9,0.0
55652.0,STARLINK-5487,PAYLOAD,2023-08-29 09:41:03,14.98331401,0.0003046,70.0016,352.3224,270.9253,89.1557,3.8261e-06,-4.7e-07,0.0,0 STARLINK-5487,1 55652U 23021AA  23241.40351505 -.00000047  00000-0  38261-5 0  9993,2 55652  70.0016 352.3224 0003046 270.9253  89.1557 14.98331401 30193,6950.189,96.107,574.171,569.937,0.0
55652.0,STARLINK-5487,PAYLOAD,2023-08-29 17:41:43,14.98334058,0.0003064,70.0016,351.481,271.0344,89.0464,3.2829e-05,2.99e-06,0.0,0 STARLINK-5487,1 55652U 23021AA  23241.73731213  .00000299  00000-0  32829-4 0  9998,2 55652  70.0016 351.4810 0003064 271.0344  89.0464 14.98334058 30543,6950.18,96.107,574.175,569.916,0.0
55652.0,STARLINK-5487,PAYLOAD,2023-08-30 16:07:36,14.98332688,0.0003026,70.0016,349.1249,270.0368,90.0445,3.0806e-05,2.75e-06,0.0,0 STARLINK-5487,1 55652U 23021AA  23242.67195213  .00000275  00000-0  30806-4 0  9993,2 55652  70.0016 349.1249 0003026 270.0368  90.0445 14.98332688 30386,6950.185,96.107,574.153,569.946,0.0
